[{"OBJECT_NAME":"STARLINK-32700","OBJECT_ID":"2024-239L","EPOCH":"2026-03-09T15:11:01.523328","MEAN_MOTION":15.30183799,"ECCENTRICITY":0.0001212,"INCLINATION":53.161,"RA_OF_ASC_NODE":181.5169,"ARG_OF_PERICENTER":59.4537,"MEAN_ANOMALY":300.6583,"EPHEMERIS_TYPE":0,"CLASSIFICATION_TYPE":"U","NORAD_CAT_ID":62311,"ELEMENT_SET_NO":999,"REV_AT_EPOCH":6954,"BSTAR":0.0011327,"MEAN_MOTION_DOT":0.00033323,"MEAN_MOTION_DDOT":0},{"OBJECT_NAME":"TEVEL2-6","OBJECT_ID":"2025-052F","EPOCH":"2026-03-09T15:35:24.554400","MEAN_MOTION":15.30760889,"ECCENTRICITY":0.0004769,"INCLINATION":97.4016,"RA_OF_ASC_NODE":325.0381,"ARG_OF_PERICENTER":95.6604,"MEAN_ANOMALY":264.5181,"EPHEMERIS_TYPE":0,"CLASSIFICATION_TYPE":"U","NORAD_CAT_ID":63215,"ELEMENT_SET_NO":999,"REV_AT_EPOCH":5486,"BSTAR":0.00070909,"MEAN_MOTION_DOT":0.00021046,"MEAN_MOTION_DDOT":0}]
